{
  "links" : {
    "next" : "https://api.nasa.gov/neo/rest/v1/feed?start_date=2005-09-09&end_date=2005-09-09&detailed=true&api_key=t0TVs3DtDT2H8Oy2Zy8m2eVrNsAVKAexjcZXUckd",
    "prev" : "https://api.nasa.gov/neo/rest/v1/feed?start_date=2005-09-07&end_date=2005-09-07&detailed=true&api_key=t0TVs3DtDT2H8Oy2Zy8m2eVrNsAVKAexjcZXUckd",
    "self" : "https://api.nasa.gov/neo/rest/v1/feed?start_date=2005-09-08&end_date=2005-09-08&detailed=true&api_key=t0TVs3DtDT2H8Oy2Zy8m2eVrNsAVKAexjcZXUckd"
  },
  "element_count" : 6,
  "near_earth_objects" : {
    "2005-09-08" : [ {
      "links" : {
        "self" : "https://api.nasa.gov/neo/rest/v1/neo/2351545?api_key=t0TVs3DtDT2H8Oy2Zy8m2eVrNsAVKAexjcZXUckd"
      },
      "neo_reference_id" : "2351545",
      "name" : "351545 (2005 TE15)",
      "nasa_jpl_url" : "http://ssd.jpl.nasa.gov/sbdb.cgi?sstr=2351545",
      "absolute_magnitude_h" : 19.7,
      "estimated_diameter" : {
        "kilometers" : {
          "estimated_diameter_min" : 0.3051792326,
          "estimated_diameter_max" : 0.6824015094
        },
        "meters" : {
          "estimated_diameter_min" : 305.1792325939,
          "estimated_diameter_max" : 682.4015094011
        },
        "miles" : {
          "estimated_diameter_min" : 0.1896295249,
          "estimated_diameter_max" : 0.4240245083
        },
        "feet" : {
          "estimated_diameter_min" : 1001.2442334633,
          "estimated_diameter_max" : 2238.8501681036
        }
      },
      "is_potentially_hazardous_asteroid" : false,
      "close_approach_data" : [ {
        "close_approach_date" : "2005-09-08",
        "epoch_date_close_approach" : 1126162800000,
        "relative_velocity" : {
          "kilometers_per_second" : "14.2493260223",
          "kilometers_per_hour" : "51297.5736801533",
          "miles_per_hour" : "31874.3173792041"
        },
        "miss_distance" : {
          "astronomical" : "0.1544649409",
          "lunar" : "60.0868644714",
          "kilometers" : "23107628",
          "miles" : "14358414"
        },
        "orbiting_body" : "Earth"
      } ],
      "orbital_data" : {
        "orbit_id" : "57",
        "orbit_determination_date" : "2017-04-06 09:23:04",
        "orbit_uncertainty" : "0",
        "minimum_orbit_intersection" : ".0540166",
        "jupiter_tisserand_invariant" : "5.200",
        "epoch_osculation" : "2458000.5",
        "eccentricity" : ".3435878633518816",
        "semi_major_axis" : "1.204383373295431",
        "inclination" : "13.1296906029755",
        "ascending_node_longitude" : "10.90557199967333",
        "orbital_period" : "482.7758686460996",
        "perihelion_distance" : ".7905718634083221",
        "perihelion_argument" : "241.1677169343793",
        "aphelion_distance" : "1.618194883182539",
        "perihelion_time" : "2457899.556314359202",
        "mean_anomaly" : "75.27245910736735",
        "mean_motion" : ".7456876438534238",
        "equinox" : "J2000"
      }
    }, {
      "links" : {
        "self" : "https://api.nasa.gov/neo/rest/v1/neo/3648644?api_key=t0TVs3DtDT2H8Oy2Zy8m2eVrNsAVKAexjcZXUckd"
      },
      "neo_reference_id" : "3648644",
      "name" : "(2013 SK20)",
      "nasa_jpl_url" : "http://ssd.jpl.nasa.gov/sbdb.cgi?sstr=3648644",
      "absolute_magnitude_h" : 27.4,
      "estimated_diameter" : {
        "kilometers" : {
          "estimated_diameter_min" : 0.0088014652,
          "estimated_diameter_max" : 0.0196806745
        },
        "meters" : {
          "estimated_diameter_min" : 8.801465209,
          "estimated_diameter_max" : 19.6806745089
        },
        "miles" : {
          "estimated_diameter_min" : 0.0054689752,
          "estimated_diameter_max" : 0.0122290004
        },
        "feet" : {
          "estimated_diameter_min" : 28.8761991163,
          "estimated_diameter_max" : 64.5691441559
        }
      },
      "is_potentially_hazardous_asteroid" : false,
      "close_approach_data" : [ {
        "close_approach_date" : "2005-09-08",
        "epoch_date_close_approach" : 1126162800000,
        "relative_velocity" : {
          "kilometers_per_second" : "22.6348052793",
          "kilometers_per_hour" : "81485.2990053079",
          "miles_per_hour" : "50631.7959291592"
        },
        "miss_distance" : {
          "astronomical" : "0.3861536372",
          "lunar" : "150.213760376",
          "kilometers" : "57767764",
          "miles" : "35895224"
        },
        "orbiting_body" : "Earth"
      } ],
      "orbital_data" : {
        "orbit_id" : "5",
        "orbit_determination_date" : "2017-04-06 08:44:33",
        "orbit_uncertainty" : "7",
        "minimum_orbit_intersection" : ".00506322",
        "jupiter_tisserand_invariant" : "5.146",
        "epoch_osculation" : "2458000.5",
        "eccentricity" : ".3938628720996406",
        "semi_major_axis" : "1.221702752380359",
        "inclination" : "5.005409766416951",
        "ascending_node_longitude" : "2.44172296586679",
        "orbital_period" : "493.2269009731417",
        "perihelion_distance" : ".740519397475795",
        "perihelion_argument" : "88.97243794564429",
        "aphelion_distance" : "1.702886107284924",
        "perihelion_time" : "2458102.670100982159",
        "mean_anomaly" : "285.4273514258705",
        "mean_motion" : ".7298871965209448",
        "equinox" : "J2000"
      }
    }, {
      "links" : {
        "self" : "https://api.nasa.gov/neo/rest/v1/neo/3759000?api_key=t0TVs3DtDT2H8Oy2Zy8m2eVrNsAVKAexjcZXUckd"
      },
      "neo_reference_id" : "3759000",
      "name" : "(2016 RG17)",
      "nasa_jpl_url" : "http://ssd.jpl.nasa.gov/sbdb.cgi?sstr=3759000",
      "absolute_magnitude_h" : 23.0,
      "estimated_diameter" : {
        "kilometers" : {
          "estimated_diameter_min" : 0.0667659413,
          "estimated_diameter_max" : 0.1492931834
        },
        "meters" : {
          "estimated_diameter_min" : 66.7659413495,
          "estimated_diameter_max" : 149.2931834393
        },
        "miles" : {
          "estimated_diameter_min" : 0.0414864197,
          "estimated_diameter_max" : 0.0927664547
        },
        "feet" : {
          "estimated_diameter_min" : 219.0483710172,
          "estimated_diameter_max" : 489.807047955
        }
      },
      "is_potentially_hazardous_asteroid" : false,
      "close_approach_data" : [ {
        "close_approach_date" : "2005-09-08",
        "epoch_date_close_approach" : 1126162800000,
        "relative_velocity" : {
          "kilometers_per_second" : "21.1494543767",
          "kilometers_per_hour" : "76138.0357561934",
          "miles_per_hour" : "47309.2144952859"
        },
        "miss_distance" : {
          "astronomical" : "0.1090392069",
          "lunar" : "42.4162521362",
          "kilometers" : "16312034",
          "miles" : "10135828"
        },
        "orbiting_body" : "Earth"
      } ],
      "orbital_data" : {
        "orbit_id" : "10",
        "orbit_determination_date" : "2017-04-06 08:24:09",
        "orbit_uncertainty" : "6",
        "minimum_orbit_intersection" : ".0439429",
        "jupiter_tisserand_invariant" : "7.014",
        "epoch_osculation" : "2458000.5",
        "eccentricity" : ".5694000469726017",
        "semi_major_axis" : ".811473868237482",
        "inclination" : "21.98842648421686",
        "ascending_node_longitude" : "170.128530929548",
        "orbital_period" : "266.9993691112638",
        "perihelion_distance" : ".3494206095460209",
        "perihelion_argument" : "29.10615943808801",
        "aphelion_distance" : "1.273527126928943",
        "perihelion_time" : "2458100.848111036764",
        "mean_anomaly" : "224.6988564299537",
        "mean_motion" : "1.348317792653589",
        "equinox" : "J2000"
      }
    } ]
  }
}